# Made by eph2tle, compiled Dec 20 2022 11:38:57
# Run at Tue Dec 20 21:37:50 2022
#
#    The following TLEs (Two-Line Elements) were generated by fitting
# a numerically-integrated ephemeris,  based on the orbit given below,
# to the SDP4/SGP4 models.  Each TLE is good for the interval between
# its epoch and the epoch of the subsequent TLE (usually one day).
# The maximum deviation between the numerically integrated ephemerides
# and the TLE-based ephemeris, in kilometers,  is given for each TLE
# as the "worst residual".
#
#    This fitting is done using the 'eph2tle' code packaged with Find_Orb.
# The code has details on how the TLEs were computed :
#
#    https://github.com/Bill-Gray/find_orb/eph2tle.cpp
#
#    Be warned:  the error given is that between the numerically
# integrated ephems and the TLE model.  There will usually be at
# least some additional difference between the ephems and the actual
# motion of the satellite,  especially if the ephemerides are based
# on a short arc.  If the following orbital elements say something
# like "[based on] 10 observations 2015 Jan. 1-13",  and the TLEs
# are for 2015 May,  the extrapolation may be tenuous at best.  If
# your application requires a specific level of accuracy,  you may
# want to contact me;  I can give you some idea as to the fit of the
# underlying data (and possibly TLEs based on newer data).
#
#   You can usually find the underlying observational data,  and the
# fitted orbit,  residuals,  ephemerides,  and sometimes some comments
# about the object,  among the pages listed at
#
#    https://www.projectpluto.com/pluto/mpecs/pseudo.htm
#
#    WARNING:  for this object,  "normal" TLEs cannot be fitted.  (This
# usually means an object with an hyperbolic or nearly-parabolic orbit.)
# For this and similar cases,   an alternative model is used,  in which
# most of the traditional TLE data is replaced by six signed 8-digit hex
# numbers.  These six numbers are a state vector,  numerically integrated
# using a simplified force model.  This is necessary for objects at L2 or
# L1,  and sometimes for objects in high orbits where the SDP4/SGP4 model
# fails.  Some documentation is in 'get_el.cpp' in the source code at
# https://www.github.com/Bill-Gray/sat_code ; look for 'hex' in that file,
# with the actual integration done in 'sdp4.cpp'.  But be aware:  it's my
# own extension,  doesn't work with other code,  and is therefore used
# only when necessary.
#
#    Also,  if you use a TLE outside the "correct" time range (between
# its MJD and that of the next TLE),  all bets are off.  I've carefully
# computed and minimized the worst error over the "correct" time frame,
# but the ephemeris may (or may not) diverge wildly outside of it.
#
# Ephem range: 59945.000000 60310.000000 1.000000
# Created Tue Dec 20 21:37:46 2022
# Ephemeris start:  1 Jan 2023  0:00:00
# Ephemeris end:    1 Jan 2024  0:00:00
# Times are all TDT
# Positions/velocities are in equatorial J2000
# Orbital elements:  2019-040A = NORAD 44432 = Spektr-RG
#    Perihelion 2022 Nov 16.3172837 +/- 0.0163 TT;  Constraint: A=0.016
# Epoch 2022 Oct 31.0 TT; AMR 0.016 +/- 1.47e-9 m^2/kg   Earth MOID: 0.0085
# M 345.0936299950 +/- 0.014          (J2000 ecliptic)             Find_Orb
# n   0.9135325620 +/- 2.55e-6        Peri.  346.4334160 +/- 0.029
# a   1.0519296455 +/- 1.96e-6        Node    67.4122320 +/- 0.013
# e   0.050202403 +/- 2.83e-6         Incl.    0.2702698 +/- 0.00018
# P   1.08/394.07d           H 26.59  G  0.15   U  4.1
# q 0.9991202493 +/- 1.14e-6    Q 1.1047390418 +/- 5.03e-6
# 18 of 1683 observations 2022 Nov. 27-Dec. 16; mean residual 0".220
#
# 1 NoradU COSPAR   Epoch.epoch     dn/dt/2  d2n/dt2/6 BSTAR    T El# C
# 2 NoradU Inclina RAAscNode Eccent  ArgPeri MeanAno  MeanMotion Rev# C

# Worst residual: 0.38 km
# MJD 59945.000000 (2023 Jan  1  0:00)
2019-040A = NORAD 44432 = Spektr-RG
1 44432U 19040A   22365.99919926 -007X8BCG +00JPMVVV +00HQU55BH 18166
2 44432                          -0000JJTC -00008YBV +0000BT2H     01

# Worst residual: 0.51 km
# MJD 59946.000000 (2023 Jan  2  0:00)
2019-040A = NORAD 44432 = Spektr-RG
1 44432U 19040A   23001.99919926 -0081X8G8 +00JNI1E4 +00HTIQYZH 18169
2 44432                          -0000JJE7 -00008UF0 +0000AJOJ     06

# Worst residual: 0.61 km
# MJD 59947.000000 (2023 Jan  3  0:00)
2019-040A = NORAD 44432 = Spektr-RG
1 44432U 19040A   23002.99919926 -0086LU5S +00JLDV2A +00HVW8QJH 18169
2 44432                          -0000JH3O -00008SML +000098IP     09

# Worst residual: 0.69 km
# MJD 59948.000000 (2023 Jan  4  0:00)
2019-040A = NORAD 44432 = Spektr-RG
1 44432U 19040A   23003.99919926 -008B9MM2 +00JJ9XD5 +00HXY8L7H 18169
2 44432                          -0000JCKR -00008SB5 +00007VXE     01

# Worst residual: 0.76 km
# MJD 59949.000000 (2023 Jan  5  0:00)
2019-040A = NORAD 44432 = Spektr-RG
1 44432U 19040A   23004.99919926 -008FW1KS +00JH5YE7 +00HZOFQ7H 18160
2 44432                          -0000J5MM -00008ST9 +00006I9N     08

# Worst residual: 0.84 km
# MJD 59950.000000 (2023 Jan  6  0:00)
2019-040A = NORAD 44432 = Spektr-RG
1 44432U 19040A   23005.99919926 -008KGHV3 +00JF1TU1 +00I12MJGH 18169
2 44432                          -0000IW81 -00008THV +000053WZ     06

# Worst residual: 0.93 km
# MJD 59951.000000 (2023 Jan  7  0:00)
2019-040A = NORAD 44432 = Spektr-RG
1 44432U 19040A   23006.99919926 -008OYELT +00JCXKUC +00I24OPVH 18168
2 44432                          -0000IKGS -00008TQI +00003P9E     01

# Worst residual: 1.02 km
# MJD 59952.000000 (2023 Jan  8  0:00)
2019-040A = NORAD 44432 = Spektr-RG
1 44432U 19040A   23007.99919926 -008TD8DS +00JATDUF +00I2ULBMH 18163
2 44432                          -0000I6KZ -00008SXS +00002AOV     07

# Worst residual: 1.09 km
# MJD 59953.000000 (2023 Jan  9  0:00)
2019-040A = NORAD 44432 = Spektr-RG
1 44432U 19040A   23008.99919926 -008XOI5C +00J8PK70 +00I38EPXH 18165
2 44432                          -0000HQW7 -00008QK5 +00000WKU     01

# Worst residual: 1.17 km
# MJD 59954.000000 (2023 Jan 10  0:00)
2019-040A = NORAD 44432 = Spektr-RG
1 44432U 19040A   23009.99919926 -0091VTZK +00J6MJOB +00I3AAD2H 18168
2 44432                          -0000H9SW -00008M4D -00000GQI     03

# Worst residual: 1.26 km
# MJD 59955.000000 (2023 Jan 11  0:00)
2019-040A = NORAD 44432 = Spektr-RG
1 44432U 19040A   23010.99919926 -0095YXRP +00J4KVVD +00I30GFOH 18160
2 44432                          -0000GRS5 -00008F80 -00001SYM     04

# Worst residual: 1.40 km
# MJD 59956.000000 (2023 Jan 12  0:00)
2019-040A = NORAD 44432 = Spektr-RG
1 44432U 19040A   23011.99919926 -0099XNRQ +00J2L7H9 +00I2F7FXH 18165
2 44432                          -0000G9DL -000085JK -000033UP     00

# Worst residual: 1.58 km
# MJD 59957.000000 (2023 Jan 13  0:00)
2019-040A = NORAD 44432 = Spektr-RG
1 44432U 19040A   23012.99919926 -009DRZBZ +00J0O7ML +00I1IVTMH 18168
2 44432                          -0000FR7V -00007SU9 -00004D7E     06

# Worst residual: 1.74 km
# MJD 59958.000000 (2023 Jan 14  0:00)
2019-040A = NORAD 44432 = Spektr-RG
1 44432U 19040A   23013.99919926 -009HI1M8 +00IYUN7A +00I0BVLXH 18167
2 44432                          -0000FA0Y -00007CY8 -00005KUR     02

# Worst residual: 1.79 km
# MJD 59959.000000 (2023 Jan 15  0:00)
2019-040A = NORAD 44432 = Spektr-RG
1 44432U 19040A   23014.99919926 -009L46HT +00IX5A4P +00HYUM3IH 18164
2 44432                          -0000EUMV -00006TSU -00006QO9     03

# Worst residual: 1.66 km
# MJD 59960.000000 (2023 Jan 16  0:00)
2019-040A = NORAD 44432 = Spektr-RG
1 44432U 19040A   23015.99919926 -009OMXLV +00IVKWG8 +00HX3JFXH 18164
2 44432                          -0000EI0G -000067G3 -00007ULE     05

# Worst residual: 1.34 km
# MJD 59961.000000 (2023 Jan 17  0:00)
2019-040A = NORAD 44432 = Spektr-RG
1 44432U 19040A   23016.99919926 -009S33IU +00IU68YZ +00HV3428H 18161
2 44432                          -0000E997 -00005I4O -00008WMQ     04

# Worst residual: 0.94 km
# MJD 59962.000000 (2023 Jan 18  0:00)
2019-040A = NORAD 44432 = Spektr-RG
1 44432U 19040A   23017.99919926 -009VHQRF +00ISXZA8 +00HSTRP2H 18165
2 44432                          -0000E5K4 -00004QD8 -00009WXN     02

# Worst residual: 0.65 km
# MJD 59963.000000 (2023 Jan 19  0:00)
2019-040A = NORAD 44432 = Spektr-RG
1 44432U 19040A   23018.99919926 -009YW87K +00IRWKZV +00HQBW16H 18168
2 44432                          -0000E83Q -00003X1H -0000AVU7     04

# Worst residual: 0.63 km
# MJD 59964.000000 (2023 Jan 20  0:00)
2019-040A = NORAD 44432 = Spektr-RG
1 44432U 19040A   23019.99919926 -00A2C6A7 +00IR2ABZ +00HNLQWYH 18165
2 44432                          -0000EHVJ -000033FZ -0000BTWG     08

# Worst residual: 0.85 km
# MJD 59965.000000 (2023 Jan 21  0:00)
2019-040A = NORAD 44432 = Spektr-RG
1 44432U 19040A   23020.99919926 -00A5VE66 +00IQEYOT +00HKNGEYH 18167
2 44432                          -0000EZEZ -00002B8E -0000CRW8     00

# Worst residual: 1.11 km
# MJD 59966.000000 (2023 Jan 22  0:00)
2019-040A = NORAD 44432 = Spektr-RG
1 44432U 19040A   23021.99919926 -00A9JQZA +00IPY26K +00HHGX9HH 18167
2 44432                          -0000FOLI -00001M8V -0000DQQ4     05

# Worst residual: 1.18 km
# MJD 59967.000000 (2023 Jan 23  0:00)
2019-040A = NORAD 44432 = Spektr-RG
1 44432U 19040A   23022.99919926 -00ADEZFW +00IPMLBE +00HE1UADH 18163
2 44432                          -0000GKJA -0000127F -0000ERAF     02

# Worst residual: 1.00 km
# MJD 59968.000000 (2023 Jan 24  0:00)
2019-040A = NORAD 44432 = Spektr-RG
1 44432U 19040A   23023.99919926 -00AHIJQ3 +00IPF7B3 +00HADP7ZH 18163
2 44432                          -0000HLPF -00000OF7 -0000FUB3     02

# Worst residual: 0.69 km
# MJD 59969.000000 (2023 Jan 25  0:00)
2019-040A = NORAD 44432 = Spektr-RG
1 44432U 19040A   23024.99919926 -00ALVH1B +00IPAAKL +00H6FUQHH 18161
2 44432                          -0000IQ86 -00000HLT -0000H07X     03

